#dP2019  3 12  0  0  0.00000000      96 __u+U ITR00 FIT  IAC
## 2044 172800.00000000   900.00000000 58554 0.0000000000000
+  106   C01C02C03C04C05C06C07C08C09C10C11C12C13C14C16C20C22
+        C23C24C25C26C27C28C30E01E02E03E04E05E07E08E09E11E12
+        E13E14E15E18E19E21E24E25E26E27E30E31E33E36G01G02G03
+        G04G05G06G07G08G09G10G11G12G13G14G15G16G17G18G19G20
+        G21G22G23G24G25G26G27G28G29G30G31G32J02J03J07R01R02
+        R03R04R05R07R08R09R10R11R13R14R15R16R17R18R19R20R21
+        R22R23R24R26  0  0  0  0  0  0  0  0  0  0  0  0  0
++        11 11 12 12 12  8  8  8  8  8  8  7  8  7  8 18 13
++        15 15  0 15 17 18 16  5  5  5  5  5  5  5  5  5  4
++         5  5  5  5  5  5  5  5  5  5  5  5  5  5  3  3  3
++         5  3  3  3  3  3  3  3  3  3  3  3  3  3  3  3  3
++         3  3  3  3  3  3  3  3  3  3  3  3 10 10 15  5  5
++         5  5  5  5  5  5  6  5  5  5  5  6  5  5  5  5  5
++         5  6  6  8  0  0  0  0  0  0  0  0  0  0  0  0  0
%c M  cc GPS ccc cccc cccc cccc cccc ccccc ccccc ccccc ccccc
%c cc cc ccc ccc cccc cccc cccc cccc ccccc ccccc ccccc ccccc
%f  0.0000000  0.000000000  0.00000000000  0.000000000000000
%f  0.0000000  0.000000000  0.00000000000  0.000000000000000
%i    0    0    0    0      0      0      0      0         0
%i    0    0    0    0      0      0      0      0         0
/* INFORMATION & ANALYSIS CENTER (IAC) OF MCC   (RAPID DATA)
/* S/V CLOCKS ARE ALIGNED TO GPS & GLONASS TIME RESPECTIVELY
/* USING THE BROADCAST EPHEMERIS                            
/* PCV:IGS14_2038 OL/AL:FES2004  NONE     YN ORB:CoN CLK:CoN
*  2019 03 12 14 15  0.00000000
PC01 -32303.958042  27076.987638    667.231659    321.669865
PC02   4455.068597  41953.339925    490.578246   -372.661426
PC03 -14883.813671  39452.324206    549.375616    -71.319142
PC04 -39595.001155  14460.448562    558.559197     10.206708
PC05  21877.319309  36039.354693    322.195622   -110.961138
PC06 -23426.666242  25133.135833 -24353.594607    521.152346
PC07 -13945.833155  38485.810540  -8889.606563    101.600152
PC08  -7314.983728  22389.304683  35100.516603    127.508097
PC09  -8694.315939  25756.287497 -32120.720110    599.624757
PC10  -5293.202931  41558.005910   2375.410493   -567.530912
PC11  26428.919328   7643.012947   4903.946410    -47.259752
PC12   2698.587662  15768.210025  22942.443120    486.501657
PC13   5582.456603  30586.536801  28649.903121   -589.205253
PC14  10188.103415  12690.533195 -22610.185328    769.899179
PC16 -19861.919559  25771.248122 -26916.629966   -354.217947
PC20 -11313.570135 -11391.770088  22847.080343 999999.999999
PC22 -18212.722566  21049.538752   1783.240225    352.276188
PC23   9387.165186 -16318.308111  20596.403402 999999.999999
PC24  15244.884059  21311.511615   9623.377084   -468.325393
PC25      0.000000      0.000000      0.000000 999999.999999
PC26   5156.016178  26447.076381  -7323.826025 999999.999999
PC27  -2236.531186 -16290.331372 -22558.319067 999999.999999
PC28  17940.746276 -10155.507047 -18803.930421 999999.999999
PC30 -21421.657972 -12127.092998 -13162.585378 999999.999999
PE01  12208.333205  19065.887161  19065.640250   -560.544458
PE02 -12237.392737 -19006.600983 -19107.559452     51.166272
PE03 -16865.434049  -9012.860404  22592.486045   -143.058469
PE04  27002.994167  -6743.988080 -10068.362431   -238.819609
PE05   3219.208211 -19589.223326  21957.758181     92.938077
PE07 -21346.438659  18663.755903  -8476.736286   -147.738835
PE08 -26924.148919   7079.223918  10046.185057   6390.154311
PE09  21208.622917 -18814.078594   8537.690853   6502.465515
PE11  12462.083502 -11459.108229 -24274.567376   5716.153543
PE12  25758.004937   4396.100713 -13872.515587   6356.335980
PE13 -12565.637692  11321.225361  24305.661400    384.114298
PE14  21365.180263 -14644.826319 -15613.614408   6432.434288
PE15 -25671.780668  -4025.391358  14197.179718    917.415636
PE18 -26263.349084   4599.305232   3475.554139   -588.266065
PE19  15103.584510  10286.410486 -23281.316799     -7.791143
PE21    883.249847  29518.158450   2028.269823   -523.703743
PE24  10827.485237 -22664.424403  15628.580906   6189.233963
PE25   -858.444306 -29520.316074  -1990.297576   1867.747298
PE26   7652.305571  20283.697992  20163.851829   4806.978516
PE27 -10895.440776  22389.508341 -16012.319598    512.046340
PE30 -16321.435147   2519.510993 -24578.482502   5038.881353
PE31  16267.855560  -2136.473304  24637.942884    885.019892
PE33  23784.582388  17083.629889   4283.805741    847.955144
PE36  -7974.225538 -20100.955269 -20204.385212    737.408240
PG01 -20140.465140 -10341.898397  13969.090381   -179.360062
PG02  13314.302364  22201.789144   6931.289884   -161.631862
PG03 -15612.819528  -1084.165133  21413.574094    186.171583
PG04 -21443.436781  10609.739432 -11531.250570 999999.999999
PG05   5418.825029  19918.115160 -16717.231908      1.172193
PG06   3247.422800  21196.242216  15696.897302    256.848850
PG07 -15808.036092   3610.785460 -20867.028761     16.347124
PG08 -20939.905669  -6951.355376 -14888.415411   -135.887661
PG09 -24416.057857   8438.636081  -6246.064017    446.313646
PG10  11081.361372 -23913.256647  -2217.818890     98.865357
PG11 -24547.457231  -8695.358784   4001.884603   -646.291657
PG12  14416.973083   3479.258503  21811.374287    260.774036
PG13  13494.587453  12806.946064 -19086.125294    -71.978481
PG14   3108.075533 -15408.797256  21698.946505    -88.615974
PG15  22833.748140   4720.148757 -13327.971138   -323.898640
PG16  -4412.529730 -18587.896396 -18435.804934    -24.894823
PG17 -13115.224105  13826.643386  18870.110861     22.326713
PG18 -19558.911268 -17318.035845   4705.657167     34.125254
PG19  -4221.061813  14583.711936  21510.891218   -343.131025
PG20  14225.118993 -18981.732772 -11912.387943    523.022495
PG21  12532.626598  -8607.643563 -20972.527913   -233.932283
PG22 -13513.411177  -9551.160354  21019.418491   -662.743903
PG23 -26337.076901    601.015950   5130.971083   -194.298747
PG24  21071.067058  12807.280386  10135.807345    -63.272055
PG25  16923.873665  -9674.344401  17714.963146   -732.096668
PG26   1891.717901 -24638.188364  -9510.750735    147.230395
PG27 -11197.489052 -12453.169198 -20780.052116    -84.649337
PG28 -13255.139153  22890.003385  -2279.982011    766.182726
PG29  26304.297766  -3270.042738  -1653.487523    251.071860
PG30  -7677.586153  14922.072566 -20534.689847    -67.191686
PG31  -3392.975680 -21682.735934  14635.857970     52.687675
PG32   9671.874401 -15337.799593  19416.584657   -184.780696
PJ02 -19141.942424  25490.433088 -23235.955204      0.194058
PJ03 -29750.779845  26056.212297  19682.275984     -0.284745
PJ07 -25387.771292  33671.920254    -44.273527     67.378967
PR01  -8928.336922  18061.567979 -15631.864362     40.713202
PR02   8750.056660   6787.074090 -22937.608555    358.413200
PR03  19363.455780  -7399.265165 -14794.343019     -7.742262
PR04  18421.763940 -17464.707291   2435.835491    298.330630
PR05   7330.744954 -17149.861132  17401.030287     23.895395
PR07 -19561.543654   7744.766955  14485.219001    -59.706855
PR08 -18787.858367  17182.450828  -1580.936488     18.680833
PR09 -10569.671944 -18089.294353 -14587.804101     58.712750
PR10 -11202.549657  -2747.840115 -22784.369029     44.741770
PR11  -6002.710328  16447.252288 -18524.618195    -59.447882
PR13  10280.529802  19060.842559  13456.152498    -21.129104
PR14  11442.142646   2454.696883  22670.306178     36.828166
PR15   6261.799433 -15691.877812  19122.698241    100.574106
PR16  -2942.243200 -24876.653678   4439.058287     10.796126
PR17  24054.806500   5238.751443  -6719.178083    211.481722
PR18  15011.542067  -4358.417169 -20115.734339     36.065572
PR19  -1867.831901 -11585.601090 -22642.598630    -60.619232
PR20 -19337.159075 -12595.942355 -10913.069442   -371.523391
PR21 -23919.164169  -4924.799357   7343.979305    -36.108842
PR22 -12934.373275   5571.068953  21312.048436     -9.018549
PR23   7286.093022  12643.458306  20917.689317    214.856596
PR24  20486.060099  11876.602306   9436.549468   -178.118485
PR26 -17963.330118 -12624.719549 -12951.577548      0.831330
EOF
